OBJECT_NAME,OBJECT_ID,EPOCH,MEAN_MOTION,ECCENTRICITY,INCLINATION,RA_OF_ASC_NODE,ARG_OF_PERICENTER,MEAN_ANOMALY,EPHEMERIS_TYPE,CLASSIFICATION_TYPE,NORAD_CAT_ID,ELEMENT_SET_NO,REV_AT_EPOCH,BSTAR,MEAN_MOTION_DOT,MEAN_MOTION_DDOT
STARLINK-11123 [DTC],2024-107D,2026-05-29T04:05:00.464928,15.69712179,.0000886,53.1577,214.7176,73.4280,286.6835,0,U,59948,999,11484,.6723E-5,.226E-5,0
STARLINK-11138 [DTC],2024-107E,2026-05-28T10:48:15.333408,15.69687555,.0001188,53.1581,218.0401,44.7558,315.3556,0,U,59949,999,11473,-.11696E-4,-.2004E-4,0
STARLINK-11130 [DTC],2024-107F,2026-05-29T03:57:56.735136,15.69709422,.0001171,53.1603,214.6878,115.4098,244.7041,0,U,59950,999,11478,.94888E-5,.561E-5,0
STARLINK-11124 [DTC],2024-107H,2026-05-28T10:55:17.706720,15.69705256,.0001232,53.1584,218.0770,61.9430,298.1712,0,U,59952,999,11474,.35412E-6,-.546E-5,0
STARLINK-11133 [DTC],2024-107K,2026-05-29T04:54:17.673408,15.69720626,.0001282,53.1579,214.2104,68.1291,291.9864,0,U,59954,999,11479,-.14334E-4,-.2326E-4,0
STARLINK-11144 [DTC],2024-107L,2026-05-29T04:47:14.658144,15.69713485,.0001037,53.1595,214.1834,82.1038,278.0097,0,U,59955,999,11485,.38753E-5,-.119E-5,0
STARLINK-11134 [DTC],2024-107M,2026-05-28T11:51:40.163904,15.69693616,.0000976,53.1584,217.5995,90.6468,269.4662,0,U,59956,999,11461,-.86006E-5,-.1629E-4,0
STARLINK-11142 [DTC],2024-107N,2026-05-29T04:33:08.605152,15.69678243,.0001404,53.1599,214.1137,93.2648,266.8531,0,U,59957,999,11480,-.15293E-4,-.2439E-4,0
STARLINK-31995,2024-107P,2026-05-29T00:05:22.227072,15.30182016,.0001246,53.1607,52.4223,77.3280,282.7860,0,U,59958,999,11089,-.16817E-5,-.409E-5,0
STARLINK-31989,2024-107Q,2026-05-29T03:04:19.436736,15.30211253,.0001611,53.1610,51.7772,120.3904,239.7256,0,U,59959,999,11211,.64898E-4,.1564E-4,0
STARLINK-31856,2024-107R,2026-05-29T03:08:55.067424,15.30166187,.0001117,53.1608,51.7979,98.8516,261.2611,0,U,59960,999,11211,.72262E-4,.178E-4,0
STARLINK-31993,2024-107S,2026-05-29T00:14:28.080672,15.30191680,.0001325,53.1615,52.4652,74.5399,285.5748,0,U,59961,999,11203,.45197E-4,.979E-5,0
STARLINK-31980,2024-107T,2026-05-29T03:33:11.462112,15.30213840,.0001387,53.1617,51.8988,107.3863,252.7289,0,U,59962,999,11211,.1794E-4,.172E-5,0
STARLINK-31991,2024-107U,2026-05-29T03:18:01.063584,15.30187334,.0001245,53.1615,51.8347,82.4547,277.6595,0,U,59963,999,11211,.31495E-4,.573E-5,0
STARLINK-31979,2024-107V,2026-05-29T03:28:36.954624,15.30219832,.0001056,53.1606,51.8817,89.8400,270.2722,0,U,59964,999,11206,.18123E-3,.5015E-4,0
PREFIRE-1,2024-108A,2026-05-28T22:56:02.518080,15.23432095,.0010067,97.5293,303.6976,312.9420,47.0971,0,U,59965,999,10966,.24631E-3,.5801E-4,0
2024-110A,2024-110A,2026-05-29T05:05:29.726304,15.13024759,.0007649,97.5689,241.0295,328.6481,31.4293,0,U,60012,999,10904,.51512E-3,.9045E-4,0
2024-110B,2024-110B,2026-05-29T05:39:58.063680,15.22167383,.0009759,97.5721,245.0551,321.3877,38.6660,0,U,60013,999,10930,.39994E-3,.912E-4,0
2024-110C,2024-110C,2026-05-29T04:59:41.384832,14.98183931,.0011317,97.5445,225.1001,205.5681,154.4983,0,U,60014,999,9896,.15577E-3,.1793E-4,0
STARLINK-31978,2024-111A,2026-05-29T00:43:57.563904,15.31702555,.0001426,53.1620,62.4816,79.3701,280.7461,0,U,60016,999,11123,-.23596E-4,-.1097E-4,0
STARLINK-31987,2024-111B,2026-05-28T23:16:42.661344,15.31705272,.0001294,53.1617,62.8143,74.0718,286.0426,0,U,60017,999,11128,.74049E-4,.1934E-4,0
STARLINK-31984,2024-111C,2026-05-29T02:37:00.026112,15.30215967,.0000928,53.1599,62.2550,74.3102,285.8001,0,U,60018,999,11119,-.26803E-4,-.1153E-4,0
STARLINK-31986,2024-111D,2026-05-28T23:15:13.427424,15.30180379,.0001701,53.1610,62.8020,111.1810,248.9373,0,U,60019,999,11133,-.38086E-4,-.1486E-4,0
STARLINK-31883,2024-111E,2026-05-28T23:44:05.647200,15.30196211,.000132,53.1626,62.9326,98.8113,261.3038,0,U,60020,999,11127,.21245E-4,.27E-5,0
STARLINK-31967,2024-111F,2026-05-28T23:25:05.147328,15.34387492,.0001158,53.1614,61.4299,73.0139,287.0990,0,U,60021,999,11135,.97421E-5,-.47E-6,0
STARLINK-31982,2024-111G,2026-05-28T23:15:59.547744,15.34391217,.0001141,53.1615,61.3965,75.8904,284.2225,0,U,60022,999,11135,.1255E-4,.48E-6,0
STARLINK-31992,2024-111H,2026-05-29T03:49:45.247008,15.30202427,.0001251,53.1602,61.8653,96.5910,263.5233,0,U,60023,999,11136,.15875E-3,.4346E-4,0
STARLINK-31990,2024-111J,2026-05-29T00:35:36.170016,15.30183257,.0001382,53.1607,62.4414,85.3377,274.7781,0,U,60024,999,11133,.90879E-5,-.9E-6,0
STARLINK-31939,2024-111L,2026-05-29T03:23:56.694624,15.30192754,.0001206,53.1611,61.7470,96.9496,263.1642,0,U,60026,999,11135,.56797E-4,.1323E-4,0
STARLINK-32012,2024-111M,2026-05-29T00:20:21.865344,15.30215906,.0001198,53.1615,62.3710,89.3744,270.7394,0,U,60027,999,11133,.14739E-3,.4011E-4,0
