STARLINK-11123 [DTC]    
1 59948U 24107D   26149.17014427  .00000226  00000+0  67230-5 0  9999
2 59948  53.1577 214.7176 0000886  73.4280 286.6835 15.69712179114843
STARLINK-11138 [DTC]    
1 59949U 24107E   26148.45017747 -.00002004  00000+0 -11696-4 0  9990
2 59949  53.1581 218.0401 0001188  44.7558 315.3556 15.69687555114739
STARLINK-11130 [DTC]    
1 59950U 24107F   26149.16523999  .00000561  00000+0  94888-5 0  9991
2 59950  53.1603 214.6878 0001171 115.4098 244.7041 15.69709422114780
STARLINK-11124 [DTC]    
1 59952U 24107H   26148.45506605 -.00000546  00000+0  35412-6 0  9992
2 59952  53.1584 218.0770 0001232  61.9430 298.1712 15.69705256114747
STARLINK-11133 [DTC]    
1 59954U 24107K   26149.20437122 -.00002326  00000+0 -14334-4 0  9992
2 59954  53.1579 214.2104 0001282  68.1291 291.9864 15.69720626114793
STARLINK-11144 [DTC]    
1 59955U 24107L   26149.19947521 -.00000119  00000+0  38753-5 0  9999
2 59955  53.1595 214.1834 0001037  82.1038 278.0097 15.69713485114850
STARLINK-11134 [DTC]    
1 59956U 24107M   26148.49421486 -.00001629  00000+0 -86006-5 0  9991
2 59956  53.1584 217.5995 0000976  90.6468 269.4662 15.69693616114615
STARLINK-11142 [DTC]    
1 59957U 24107N   26149.18968293 -.00002439  00000+0 -15293-4 0  9990
2 59957  53.1599 214.1137 0001404  93.2648 266.8531 15.69678243114805
STARLINK-31995          
1 59958U 24107P   26149.00372948 -.00000409  00000+0 -16817-5 0  9997
2 59958  53.1607  52.4223 0001246  77.3280 282.7860 15.30182016110897
STARLINK-31989          
1 59959U 24107Q   26149.12800274  .00001564  00000+0  64898-4 0  9991
2 59959  53.1610  51.7772 0001611 120.3904 239.7256 15.30211253112115
STARLINK-31856          
1 59960U 24107R   26149.13119291  .00001780  00000+0  72262-4 0  9990
2 59960  53.1608  51.7979 0001117  98.8516 261.2611 15.30166187112112
STARLINK-31993          
1 59961U 24107S   26149.01004723  .00000979  00000+0  45197-4 0  9997
2 59961  53.1615  52.4652 0001325  74.5399 285.5748 15.30191680112035
STARLINK-31980          
1 59962U 24107T   26149.14804933  .00000172  00000+0  17940-4 0  9993
2 59962  53.1617  51.8988 0001387 107.3863 252.7289 15.30213840112110
STARLINK-31991          
1 59963U 24107U   26149.13751231  .00000573  00000+0  31495-4 0  9991
2 59963  53.1615  51.8347 0001245  82.4547 277.6595 15.30187334112117
STARLINK-31979          
1 59964U 24107V   26149.14487216  .00005015  00000+0  18123-3 0  9990
2 59964  53.1606  51.8817 0001056  89.8400 270.2722 15.30219832112063
PREFIRE-1               
1 59965U 24108A   26148.95558470  .00005801  00000+0  24631-3 0  9995
2 59965  97.5293 303.6976 0010067 312.9420  47.0971 15.23432095109664
2024-110A               
1 60012U 24110A   26149.21214961  .00009045  00000+0  51512-3 0  9999
2 60012  97.5689 241.0295 0007649 328.6481  31.4293 15.13024759109049
2024-110B               
1 60013U 24110B   26149.23608870  .00009120  00000+0  39994-3 0  9992
2 60013  97.5721 245.0551 0009759 321.3877  38.6660 15.22167383109306
2024-110C               
1 60014U 24110C   26149.20811788  .00001793  00000+0  15577-3 0  9993
2 60014  97.5445 225.1001 0011317 205.5681 154.4983 14.98183931 98961
STARLINK-31978          
1 60016U 24111A   26149.03052736 -.00001097  00000+0 -23596-4 0  9997
2 60016  53.1620  62.4816 0001426  79.3701 280.7461 15.31702555111239
STARLINK-31987          
1 60017U 24111B   26148.96993821  .00001934  00000+0  74049-4 0  9995
2 60017  53.1617  62.8143 0001294  74.0718 286.0426 15.31705272111280
STARLINK-31984          
1 60018U 24111C   26149.10902808 -.00001153  00000+0 -26803-4 0  9998
2 60018  53.1599  62.2550 0000928  74.3102 285.8001 15.30215967111191
STARLINK-31986          
1 60019U 24111D   26148.96890541 -.00001486  00000+0 -38086-4 0  9997
2 60019  53.1610  62.8020 0001701 111.1810 248.9373 15.30180379111336
STARLINK-31883          
1 60020U 24111E   26148.98895425  .00000270  00000+0  21245-4 0  9994
2 60020  53.1626  62.9326 0001320  98.8113 261.3038 15.30196211111271
STARLINK-31967          
1 60021U 24111F   26148.97575402 -.00000047  00000+0  97421-5 0  9997
2 60021  53.1614  61.4299 0001158  73.0139 287.0990 15.34387492111352
STARLINK-31982          
1 60022U 24111G   26148.96943921  .00000048  00000+0  12550-4 0  9991
2 60022  53.1615  61.3965 0001141  75.8904 284.2225 15.34391217111355
STARLINK-31992          
1 60023U 24111H   26149.15955147  .00004346  00000+0  15875-3 0  9994
2 60023  53.1602  61.8653 0001251  96.5910 263.5233 15.30202427111360
STARLINK-31990          
1 60024U 24111J   26149.02472419 -.00000090  00000+0  90879-5 0  9999
2 60024  53.1607  62.4414 0001382  85.3377 274.7781 15.30183257111334
STARLINK-31939          
1 60026U 24111L   26149.14162841  .00001323  00000+0  56797-4 0  9998
2 60026  53.1611  61.7470 0001206  96.9496 263.1642 15.30192754111352
STARLINK-32012          
1 60027U 24111M   26149.01414196  .00004011  00000+0  14739-3 0  9994
2 60027  53.1615  62.3710 0001198  89.3744 270.7394 15.30215906111334
